{
"type": "FeatureCollection",
"name": "OSNI_Open_Data_-_Gazetteer_-_Place_Names",
"crs": { "type": "name", "properties": { "name": "urn:ogc:def:crs:OGC:1.3:CRS84" } },
"features": [
{ "type": "Feature", "properties": { "PLACENAME": "ACTON", "X": 305600, "Y": 341200, "OBJECTID": 1 }, "geometry": { "type": "Point", "coordinates": [ -6.378357832885347, 54.30866006639004 ] } },
{ "type": "Feature", "properties": { "PLACENAME": "AGHADOWEY", "X": 285900, "Y": 420900, "OBJECTID": 2 }, "geometry": { "type": "Point", "coordinates": [ -6.657508075752721, 55.028101093145764 ] } },
{ "type": "Feature", "properties": { "PLACENAME": "AGHALEE", "X": 312300, "Y": 365000, "OBJECTID": 3 }, "geometry": { "type": "Point", "coordinates": [ -6.266475501088042, 54.520939548019015 ] } },
{ "type": "Feature", "properties": { "PLACENAME": "AGIVEY", "X": 289900, "Y": 422900, "OBJECTID": 4 }, "geometry": { "type": "Point", "coordinates": [ -6.594350521151068, 55.045354550952617 ] } },
{ "type": "Feature", "properties": { "PLACENAME": "AHOGHILL", "X": 305000, "Y": 401700, "OBJECTID": 5 }, "geometry": { "type": "Point", "coordinates": [ -6.365968303625221, 54.852044912451603 ] } },
{ "type": "Feature", "properties": { "PLACENAME": "ANNACLONE", "X": 318000, "Y": 341300, "OBJECTID": 6 }, "geometry": { "type": "Point", "coordinates": [ -6.187910673614786, 54.306846849709004 ] } },
{ "type": "Feature", "properties": { "PLACENAME": "ANNACLOY", "X": 344700, "Y": 348400, "OBJECTID": 7 }, "geometry": { "type": "Point", "coordinates": [ -5.77458752329729, 54.36372422426173 ] } },
{ "type": "Feature", "properties": { "PLACENAME": "ANNADORN", "X": 343200, "Y": 344700, "OBJECTID": 8 }, "geometry": { "type": "Point", "coordinates": [ -5.799421743456616, 54.330933035394224 ] } },
{ "type": "Feature", "properties": { "PLACENAME": "ANNAHILT", "X": 329600, "Y": 356200, "OBJECTID": 9 }, "geometry": { "type": "Point", "coordinates": [ -6.003330529643044, 54.437810884941861 ] } },
{ "type": "Feature", "properties": { "PLACENAME": "ANNALONG", "X": 337500, "Y": 319700, "OBJECTID": 10 }, "geometry": { "type": "Point", "coordinates": [ -5.898411874303806, 54.108059125623086 ] } },
{ "type": "Feature", "properties": { "PLACENAME": "ANNSBOROUGH", "X": 335500, "Y": 337000, "OBJECTID": 11 }, "geometry": { "type": "Point", "coordinates": [ -5.921187291191569, 54.263905549970005 ] } },
{ "type": "Feature", "properties": { "PLACENAME": "ANTRIM", "X": 315300, "Y": 387000, "OBJECTID": 12 }, "geometry": { "type": "Point", "coordinates": [ -6.211523867240925, 54.71779842118471 ] } },
{ "type": "Feature", "properties": { "PLACENAME": "ARDGLASS", "X": 355900, "Y": 337400, "OBJECTID": 13 }, "geometry": { "type": "Point", "coordinates": [ -5.608176714373849, 54.261693163752021 ] } },
{ "type": "Feature", "properties": { "PLACENAME": "ARMAGH", "X": 287600, "Y": 345500, "OBJECTID": 14 }, "geometry": { "type": "Point", "coordinates": [ -6.653546587557944, 54.350679265843418 ] } },
{ "type": "Feature", "properties": { "PLACENAME": "ARMOY", "X": 306700, "Y": 432800, "OBJECTID": 15 }, "geometry": { "type": "Point", "coordinates": [ -6.327938504986596, 55.130924070679157 ] } },
{ "type": "Feature", "properties": { "PLACENAME": "ARTICLAVE", "X": 278400, "Y": 433900, "OBJECTID": 16 }, "geometry": { "type": "Point", "coordinates": [ -6.771180492080611, 55.146082463151963 ] } },
{ "type": "Feature", "properties": { "PLACENAME": "ARTIGARVAN", "X": 238100, "Y": 401100, "OBJECTID": 17 }, "geometry": { "type": "Point", "coordinates": [ -7.407520607414209, 54.856206729425274 ] } },
{ "type": "Feature", "properties": { "PLACENAME": "ATTICAL", "X": 327900, "Y": 319500, "OBJECTID": 18 }, "geometry": { "type": "Point", "coordinates": [ -6.04517943779604, 54.108736722324004 ] } },
{ "type": "Feature", "properties": { "PLACENAME": "AUGHER", "X": 256400, "Y": 353600, "OBJECTID": 19 }, "geometry": { "type": "Point", "coordinates": [ -7.131757897039686, 54.427836767159953 ] } },
{ "type": "Feature", "properties": { "PLACENAME": "AUGHNACLOY", "X": 266500, "Y": 352300, "OBJECTID": 20 }, "geometry": { "type": "Point", "coordinates": [ -6.976457676904118, 54.414941286203266 ] } },
{ "type": "Feature", "properties": { "PLACENAME": "BAILEYSMILL", "X": 332400, "Y": 358600, "OBJECTID": 21 }, "geometry": { "type": "Point", "coordinates": [ -5.959134651379649, 54.45863645126024 ] } },
{ "type": "Feature", "properties": { "PLACENAME": "BALLINAMALLARD", "X": 226400, "Y": 352800, "OBJECTID": 22 }, "geometry": { "type": "Point", "coordinates": [ -7.594036829444962, 54.423089314184665 ] } },
{ "type": "Feature", "properties": { "PLACENAME": "BALLINTOY", "X": 304400, "Y": 444500, "OBJECTID": 23 }, "geometry": { "type": "Point", "coordinates": [ -6.359669114025963, 55.236462598732132 ] } },
{ "type": "Feature", "properties": { "PLACENAME": "BALLYBOGY", "X": 292100, "Y": 432400, "OBJECTID": 24 }, "geometry": { "type": "Point", "coordinates": [ -6.556875610305497, 55.130257829950509 ] } },
{ "type": "Feature", "properties": { "PLACENAME": "BALLYCARRY", "X": 344700, "Y": 394900, "OBJECTID": 25 }, "geometry": { "type": "Point", "coordinates": [ -5.751717273246038, 54.781121903828755 ] } },
{ "type": "Feature", "properties": { "PLACENAME": "BALLYCASTLE", "X": 311500, "Y": 440700, "OBJECTID": 26 }, "geometry": { "type": "Point", "coordinates": [ -6.249617934408202, 55.200795253281676 ] } },
{ "type": "Feature", "properties": { "PLACENAME": "BALLYCLARE", "X": 328700, "Y": 391200, "OBJECTID": 27 }, "geometry": { "type": "Point", "coordinates": [ -6.001860148320316, 54.752258296725913 ] } },
{ "type": "Feature", "properties": { "PLACENAME": "BALLYGALLEY", "X": 337400, "Y": 407700, "OBJECTID": 28 }, "geometry": { "type": "Point", "coordinates": [ -5.859012033645222, 54.898069952329706 ] } },
{ "type": "Feature", "properties": { "PLACENAME": "BALLYGAWLEY", "X": 263100, "Y": 357500, "OBJECTID": 29 }, "geometry": { "type": "Point", "coordinates": [ -7.027712716463114, 54.462080485692795 ] } },
{ "type": "Feature", "properties": { "PLACENAME": "BALLYGOWAN", "X": 343100, "Y": 363800, "OBJECTID": 30 }, "geometry": { "type": "Point", "coordinates": [ -5.791756070622663, 54.502416565500731 ] } },
{ "type": "Feature", "properties": { "PLACENAME": "BALLYHALBERT", "X": 364600, "Y": 363700, "OBJECTID": 31 }, "geometry": { "type": "Point", "coordinates": [ -5.460260841451876, 54.495004921600803 ] } },
{ "type": "Feature", "properties": { "PLACENAME": "BALLYHORNAN", "X": 359200, "Y": 342000, "OBJECTID": 32 }, "geometry": { "type": "Point", "coordinates": [ -5.555137546301112, 54.301965015439734 ] } },
{ "type": "Feature", "properties": { "PLACENAME": "BALLYKELLY", "X": 262700, "Y": 422200, "OBJECTID": 33 }, "geometry": { "type": "Point", "coordinates": [ -7.019938251469146, 55.043238171897386 ] } },
{ "type": "Feature", "properties": { "PLACENAME": "BALLYLUMFORD", "X": 342600, "Y": 402000, "OBJECTID": 34 }, "geometry": { "type": "Point", "coordinates": [ -5.780836984545108, 54.845452171712473 ] } },
{ "type": "Feature", "properties": { "PLACENAME": "BALLYMAGORRY", "X": 236700, "Y": 401400, "OBJECTID": 35 }, "geometry": { "type": "Point", "coordinates": [ -7.429279784049725, 54.859005857837005 ] } },
{ "type": "Feature", "properties": { "PLACENAME": "BALLYMARTIN", "X": 334300, "Y": 316600, "OBJECTID": 36 }, "geometry": { "type": "Point", "coordinates": [ -5.948678173916205, 54.08107132776594 ] } },
{ "type": "Feature", "properties": { "PLACENAME": "BALLYMENA", "X": 310700, "Y": 403400, "OBJECTID": 37 }, "geometry": { "type": "Point", "coordinates": [ -6.276615481525131, 54.866082144764533 ] } },
{ "type": "Feature", "properties": { "PLACENAME": "BALLYMONEY", "X": 294900, "Y": 425800, "OBJECTID": 38 }, "geometry": { "type": "Point", "coordinates": [ -6.515194835198943, 55.070466500173708 ] } },
{ "type": "Feature", "properties": { "PLACENAME": "BALLYNAHINCH", "X": 336600, "Y": 352300, "OBJECTID": 39 }, "geometry": { "type": "Point", "coordinates": [ -5.897317729608391, 54.400968640920404 ] } },
{ "type": "Feature", "properties": { "PLACENAME": "BALLYRONAN", "X": 294600, "Y": 385500, "OBJECTID": 40 }, "geometry": { "type": "Point", "coordinates": [ -6.533103089164958, 54.70864178937596 ] } },
{ "type": "Feature", "properties": { "PLACENAME": "BALLYRONEY", "X": 322100, "Y": 337700, "OBJECTID": 41 }, "geometry": { "type": "Point", "coordinates": [ -6.126427473069741, 54.273560789276793 ] } },
{ "type": "Feature", "properties": { "PLACENAME": "BALLYSKEAGH", "X": 329200, "Y": 366900, "OBJECTID": 42 }, "geometry": { "type": "Point", "coordinates": [ -6.004817315872407, 54.53397543777502 ] } },
{ "type": "Feature", "properties": { "PLACENAME": "BALLYWALTER", "X": 362800, "Y": 369000, "OBJECTID": 43 }, "geometry": { "type": "Point", "coordinates": [ -5.485089744139702, 54.543150365543525 ] } },
{ "type": "Feature", "properties": { "PLACENAME": "BALLYWARD", "X": 327600, "Y": 338300, "OBJECTID": 44 }, "geometry": { "type": "Point", "coordinates": [ -6.041796603192091, 54.27760660825458 ] } },
{ "type": "Feature", "properties": { "PLACENAME": "BALNAMORE", "X": 291800, "Y": 425000, "OBJECTID": 45 }, "geometry": { "type": "Point", "coordinates": [ -6.563962069944057, 55.063864870983174 ] } },
{ "type": "Feature", "properties": { "PLACENAME": "BANBRIDGE", "X": 312700, "Y": 346200, "OBJECTID": 46 }, "geometry": { "type": "Point", "coordinates": [ -6.267443166068795, 54.352041503233728 ] } },
{ "type": "Feature", "properties": { "PLACENAME": "BANGOR", "X": 350500, "Y": 381600, "OBJECTID": 47 }, "geometry": { "type": "Point", "coordinates": [ -5.668516534367983, 54.66004482270781 ] } },
{ "type": "Feature", "properties": { "PLACENAME": "BELCOO", "X": 280500, "Y": 338700, "OBJECTID": 48 }, "geometry": { "type": "Point", "coordinates": [ -6.764540083432196, 54.290774437912084 ] } },
{ "type": "Feature", "properties": { "PLACENAME": "BELFAST", "X": 333800, "Y": 374000, "OBJECTID": 49 }, "geometry": { "type": "Point", "coordinates": [ -5.930577826597136, 54.596521485290133 ] } },
{ "type": "Feature", "properties": { "PLACENAME": "BELLAGHY", "X": 295300, "Y": 396600, "OBJECTID": 50 }, "geometry": { "type": "Point", "coordinates": [ -6.518610326123843, 54.808186438027406 ] } },
{ "type": "Feature", "properties": { "PLACENAME": "BELLANALECK", "X": 223400, "Y": 338600, "OBJECTID": 51 }, "geometry": { "type": "Point", "coordinates": [ -7.641366735130838, 54.295673247836191 ] } },
{ "type": "Feature", "properties": { "PLACENAME": "BELLEEK", "X": 298800, "Y": 327200, "OBJECTID": 52 }, "geometry": { "type": "Point", "coordinates": [ -6.487396603997225, 54.184292398571806 ] } },
{ "type": "Feature", "properties": { "PLACENAME": "BELLEEK", "X": 194000, "Y": 359000, "OBJECTID": 53 }, "geometry": { "type": "Point", "coordinates": [ -8.093307869023736, 54.479433578205764 ] } },
{ "type": "Feature", "properties": { "PLACENAME": "BELTOY", "X": 341600, "Y": 394800, "OBJECTID": 54 }, "geometry": { "type": "Point", "coordinates": [ -5.799908533744364, 54.781107348895041 ] } },
{ "type": "Feature", "properties": { "PLACENAME": "BENBURB", "X": 281500, "Y": 352300, "OBJECTID": 55 }, "geometry": { "type": "Point", "coordinates": [ -6.74547083254533, 54.412762170506916 ] } },
{ "type": "Feature", "properties": { "PLACENAME": "BENDOORAGH", "X": 292700, "Y": 423300, "OBJECTID": 56 }, "geometry": { "type": "Point", "coordinates": [ -6.55043275220055, 55.048432697732125 ] } },
{ "type": "Feature", "properties": { "PLACENAME": "BERAGH", "X": 254400, "Y": 367200, "OBJECTID": 57 }, "geometry": { "type": "Point", "coordinates": [ -7.160067899902865, 54.550213744419949 ] } },
{ "type": "Feature", "properties": { "PLACENAME": "BESSBROOK", "X": 304700, "Y": 328600, "OBJECTID": 58 }, "geometry": { "type": "Point", "coordinates": [ -6.396575941944433, 54.195695966626566 ] } },
{ "type": "Feature", "properties": { "PLACENAME": "BISHOPS COURT", "X": 356000, "Y": 342800, "OBJECTID": 59 }, "geometry": { "type": "Point", "coordinates": [ -5.603830109931554, 54.310131609717125 ] } },
{ "type": "Feature", "properties": { "PLACENAME": "BLACKWATERTOWN", "X": 284300, "Y": 352400, "OBJECTID": 60 }, "geometry": { "type": "Point", "coordinates": [ -6.702328482296073, 54.413204598885322 ] } },
{ "type": "Feature", "properties": { "PLACENAME": "BOARDMILLS", "X": 335300, "Y": 359500, "OBJECTID": 61 }, "geometry": { "type": "Point", "coordinates": [ -5.914037964619156, 54.465952759941281 ] } },
{ "type": "Feature", "properties": { "PLACENAME": "BOHO", "X": 212600, "Y": 344400, "OBJECTID": 62 }, "geometry": { "type": "Point", "coordinates": [ -7.806988100985069, 54.348156991846089 ] } },
{ "type": "Feature", "properties": { "PLACENAME": "BOLEA", "X": 271400, "Y": 425700, "OBJECTID": 63 }, "geometry": { "type": "Point", "coordinates": [ -6.882996322976983, 55.073498715850043 ] } },
{ "type": "Feature", "properties": { "PLACENAME": "BOVEDY", "X": 289200, "Y": 411700, "OBJECTID": 64 }, "geometry": { "type": "Point", "coordinates": [ -6.608783024948838, 54.944906097361489 ] } },
{ "type": "Feature", "properties": { "PLACENAME": "BOVEVAGH", "X": 266800, "Y": 414000, "OBJECTID": 65 }, "geometry": { "type": "Point", "coordinates": [ -6.957725679380284, 54.969060540289107 ] } },
{ "type": "Feature", "properties": { "PLACENAME": "BROOKEBOROUGH", "X": 238700, "Y": 340800, "OBJECTID": 66 }, "geometry": { "type": "Point", "coordinates": [ -7.406114985064862, 54.31450778274565 ] } },
{ "type": "Feature", "properties": { "PLACENAME": "BROUGHSHANE", "X": 315200, "Y": 406600, "OBJECTID": 67 }, "geometry": { "type": "Point", "coordinates": [ -6.205289270316244, 54.893798051269314 ] } },
{ "type": "Feature", "properties": { "PLACENAME": "BUCKNA", "X": 320800, "Y": 407400, "OBJECTID": 68 }, "geometry": { "type": "Point", "coordinates": [ -6.117726013526359, 54.899659909053099 ] } },
{ "type": "Feature", "properties": { "PLACENAME": "BURREN", "X": 313700, "Y": 321800, "OBJECTID": 69 }, "geometry": { "type": "Point", "coordinates": [ -6.261312470021106, 54.13272051909626 ] } },
{ "type": "Feature", "properties": { "PLACENAME": "BUSHMILLS", "X": 294100, "Y": 440600, "OBJECTID": 70 }, "geometry": { "type": "Point", "coordinates": [ -6.522811786530912, 55.203512587851229 ] } },
{ "type": "Feature", "properties": { "PLACENAME": "CALEDON", "X": 275700, "Y": 345300, "OBJECTID": 71 }, "geometry": { "type": "Point", "coordinates": [ -6.836562216137462, 54.350786120094504 ] } },
{ "type": "Feature", "properties": { "PLACENAME": "CAMLOUGH", "X": 303800, "Y": 326900, "OBJECTID": 72 }, "geometry": { "type": "Point", "coordinates": [ -6.410945316512728, 54.180612262270152 ] } },
{ "type": "Feature", "properties": { "PLACENAME": "CAPPAGH", "X": 269600, "Y": 366500, "OBJECTID": 73 }, "geometry": { "type": "Point", "coordinates": [ -6.92537824411601, 54.542067411722364 ] } },
{ "type": "Feature", "properties": { "PLACENAME": "CARNAGH", "X": 283100, "Y": 329200, "OBJECTID": 74 }, "geometry": { "type": "Point", "coordinates": [ -6.727254187809791, 54.205035407469914 ] } },
{ "type": "Feature", "properties": { "PLACENAME": "CARNCASTLE", "X": 335900, "Y": 407500, "OBJECTID": 75 }, "geometry": { "type": "Point", "coordinates": [ -5.882469832250126, 54.896684296843361 ] } },
{ "type": "Feature", "properties": { "PLACENAME": "CARNLOUGH", "X": 328600, "Y": 417900, "OBJECTID": 76 }, "geometry": { "type": "Point", "coordinates": [ -5.991524147660469, 54.991975308881564 ] } },
{ "type": "Feature", "properties": { "PLACENAME": "CARNMONEY", "X": 332200, "Y": 383700, "OBJECTID": 77 }, "geometry": { "type": "Point", "coordinates": [ -5.950938807551717, 54.684021952416458 ] } },
{ "type": "Feature", "properties": { "PLACENAME": "CARRICKFERGUS", "X": 341300, "Y": 387400, "OBJECTID": 78 }, "geometry": { "type": "Point", "coordinates": [ -5.808160027482696, 54.714767213502789 ] } },
{ "type": "Feature", "properties": { "PLACENAME": "CARRICKMORE", "X": 261500, "Y": 372500, "OBJECTID": 79 }, "geometry": { "type": "Point", "coordinates": [ -7.049254770551643, 54.597006139396733 ] } },
{ "type": "Feature", "properties": { "PLACENAME": "CARRIGANS", "X": 236700, "Y": 411700, "OBJECTID": 80 }, "geometry": { "type": "Point", "coordinates": [ -7.42796880650817, 54.951522537315938 ] } },
{ "type": "Feature", "properties": { "PLACENAME": "CARROWDORE", "X": 358100, "Y": 372500, "OBJECTID": 81 }, "geometry": { "type": "Point", "coordinates": [ -5.555762596740399, 54.576050377839856 ] } },
{ "type": "Feature", "properties": { "PLACENAME": "CARRYDUFF", "X": 336500, "Y": 365200, "OBJECTID": 82 }, "geometry": { "type": "Point", "coordinates": [ -5.892912977804482, 54.516801990295598 ] } },
{ "type": "Feature", "properties": { "PLACENAME": "CASTLECAULFIELD", "X": 275300, "Y": 362700, "OBJECTID": 83 }, "geometry": { "type": "Point", "coordinates": [ -6.838298211136478, 54.507123690362015 ] } },
{ "type": "Feature", "properties": { "PLACENAME": "CASTLEDAWSON", "X": 292800, "Y": 393100, "OBJECTID": 84 }, "geometry": { "type": "Point", "coordinates": [ -6.558596361148081, 54.777224897475406 ] } },
{ "type": "Feature", "properties": { "PLACENAME": "CASTLEDERG", "X": 226400, "Y": 384600, "OBJECTID": 85 }, "geometry": { "type": "Point", "coordinates": [ -7.591186179187944, 54.708746414084224 ] } },
{ "type": "Feature", "properties": { "PLACENAME": "CASTLEROCK", "X": 277200, "Y": 436100, "OBJECTID": 86 }, "geometry": { "type": "Point", "coordinates": [ -6.78939732002808, 55.16602735104567 ] } },
{ "type": "Feature", "properties": { "PLACENAME": "CASTLEWELLAN", "X": 334000, "Y": 336100, "OBJECTID": 87 }, "geometry": { "type": "Point", "coordinates": [ -5.944593890725239, 54.25622015937175 ] } },
{ "type": "Feature", "properties": { "PLACENAME": "CHARLEMONT", "X": 285300, "Y": 355700, "OBJECTID": 88 }, "geometry": { "type": "Point", "coordinates": [ -6.6859822884125, 54.442675416414197 ] } },
{ "type": "Feature", "properties": { "PLACENAME": "CLADY", "X": 325700, "Y": 378700, "OBJECTID": 89 }, "geometry": { "type": "Point", "coordinates": [ -6.053805465865754, 54.64079487968565 ] } },
{ "type": "Feature", "properties": { "PLACENAME": "CLADY", "X": 229500, "Y": 394000, "OBJECTID": 90 }, "geometry": { "type": "Point", "coordinates": [ -7.542142736105692, 54.793010920219814 ] } },
{ "type": "Feature", "properties": { "PLACENAME": "CLARE", "X": 301100, "Y": 343000, "OBJECTID": 91 }, "geometry": { "type": "Point", "coordinates": [ -6.446855978163084, 54.325734039490158 ] } },
{ "type": "Feature", "properties": { "PLACENAME": "CLAUDY", "X": 254200, "Y": 407500, "OBJECTID": 92 }, "geometry": { "type": "Point", "coordinates": [ -7.155662234171803, 54.912207374850709 ] } },
{ "type": "Feature", "properties": { "PLACENAME": "CLOGH MILLS", "X": 306800, "Y": 418200, "OBJECTID": 93 }, "geometry": { "type": "Point", "coordinates": [ -6.331835058582162, 54.999815163995727 ] } },
{ "type": "Feature", "properties": { "PLACENAME": "CLOGH", "X": 309600, "Y": 414600, "OBJECTID": 94 }, "geometry": { "type": "Point", "coordinates": [ -6.289477641256243, 54.966884732141416 ] } },
{ "type": "Feature", "properties": { "PLACENAME": "CLOGHER", "X": 253800, "Y": 351700, "OBJECTID": 95 }, "geometry": { "type": "Point", "coordinates": [ -7.17215705354097, 54.411051504520387 ] } },
{ "type": "Feature", "properties": { "PLACENAME": "CLOGHY", "X": 363600, "Y": 356300, "OBJECTID": 96 }, "geometry": { "type": "Point", "coordinates": [ -5.479765438168245, 54.428916010009381 ] } },
{ "type": "Feature", "properties": { "PLACENAME": "CLONFEACLE", "X": 283800, "Y": 352200, "OBJECTID": 97 }, "geometry": { "type": "Point", "coordinates": [ -6.710083895147786, 54.411490880239533 ] } },
{ "type": "Feature", "properties": { "PLACENAME": "CLOUGH", "X": 340900, "Y": 340100, "OBJECTID": 98 }, "geometry": { "type": "Point", "coordinates": [ -5.836917993455025, 54.290277753342252 ] } },
{ "type": "Feature", "properties": { "PLACENAME": "COAGH", "X": 289200, "Y": 378600, "OBJECTID": 99 }, "geometry": { "type": "Point", "coordinates": [ -6.618957599613306, 54.647662133460763 ] } },
{ "type": "Feature", "properties": { "PLACENAME": "COALISLAND", "X": 284000, "Y": 366600, "OBJECTID": 100 }, "geometry": { "type": "Point", "coordinates": [ -6.702917381920935, 54.540784228333642 ] } },
{ "type": "Feature", "properties": { "PLACENAME": "COLERAINE", "X": 284700, "Y": 432400, "OBJECTID": 101 }, "geometry": { "type": "Point", "coordinates": [ -6.672851226624029, 55.131576456415623 ] } },
{ "type": "Feature", "properties": { "PLACENAME": "COMBER", "X": 345900, "Y": 369300, "OBJECTID": 102 }, "geometry": { "type": "Point", "coordinates": [ -5.745850273511172, 54.550989123648286 ] } },
{ "type": "Feature", "properties": { "PLACENAME": "CONLIG", "X": 350000, "Y": 377900, "OBJECTID": 103 }, "geometry": { "type": "Point", "coordinates": [ -5.678152340947413, 54.626983739787796 ] } },
{ "type": "Feature", "properties": { "PLACENAME": "COOKSTOWN", "X": 281000, "Y": 378000, "OBJECTID": 104 }, "geometry": { "type": "Point", "coordinates": [ -6.746113646624234, 54.6436554243041 ] } },
{ "type": "Feature", "properties": { "PLACENAME": "CORKEY", "X": 308700, "Y": 422800, "OBJECTID": 105 }, "geometry": { "type": "Point", "coordinates": [ -6.300411889403851, 55.040705702978059 ] } },
{ "type": "Feature", "properties": { "PLACENAME": "CRAIGAVAD", "X": 342200, "Y": 381200, "OBJECTID": 106 }, "geometry": { "type": "Point", "coordinates": [ -5.797223654034295, 54.65886077831528 ] } },
{ "type": "Feature", "properties": { "PLACENAME": "CRAIGAVON", "X": 304200, "Y": 356200, "OBJECTID": 107 }, "geometry": { "type": "Point", "coordinates": [ -6.394608307147712, 54.443646091127725 ] } },
{ "type": "Feature", "properties": { "PLACENAME": "CRAIGS", "X": 304200, "Y": 408100, "OBJECTID": 108 }, "geometry": { "type": "Point", "coordinates": [ -6.376108064891863, 54.909677974092659 ] } },
{ "type": "Feature", "properties": { "PLACENAME": "CRANAGH", "X": 258900, "Y": 392900, "OBJECTID": 109 }, "geometry": { "type": "Point", "coordinates": [ -7.085361854839062, 54.780544816020488 ] } },
{ "type": "Feature", "properties": { "PLACENAME": "CRAWFORDSBURN", "X": 346400, "Y": 381300, "OBJECTID": 110 }, "geometry": { "type": "Point", "coordinates": [ -5.732146436708213, 54.658557813654269 ] } },
{ "type": "Feature", "properties": { "PLACENAME": "CREGGAN", "X": 293200, "Y": 316100, "OBJECTID": 111 }, "geometry": { "type": "Point", "coordinates": [ -6.576566729054113, 54.085649734912124 ] } },
{ "type": "Feature", "properties": { "PLACENAME": "CROSSGAR", "X": 345400, "Y": 352100, "OBJECTID": 112 }, "geometry": { "type": "Point", "coordinates": [ -5.762020223155027, 54.396738598751767 ] } },
{ "type": "Feature", "properties": { "PLACENAME": "CROSSMAGLEN", "X": 291100, "Y": 315100, "OBJECTID": 113 }, "geometry": { "type": "Point", "coordinates": [ -6.60894647237201, 54.077043891111117 ] } },
{ "type": "Feature", "properties": { "PLACENAME": "CRUMLIN", "X": 315500, "Y": 376300, "OBJECTID": 114 }, "geometry": { "type": "Point", "coordinates": [ -6.212647706874843, 54.621681420681455 ] } },
{ "type": "Feature", "properties": { "PLACENAME": "CULCAVY", "X": 323700, "Y": 360400, "OBJECTID": 115 }, "geometry": { "type": "Point", "coordinates": [ -6.092451641470847, 54.476988252580142 ] } },
{ "type": "Feature", "properties": { "PLACENAME": "CULLAVILLE", "X": 288800, "Y": 313400, "OBJECTID": 116 }, "geometry": { "type": "Point", "coordinates": [ -6.644571724936073, 54.06217673770054 ] } },
{ "type": "Feature", "properties": { "PLACENAME": "CULLYBACKEY", "X": 305500, "Y": 405800, "OBJECTID": 117 }, "geometry": { "type": "Point", "coordinates": [ -6.356689754131426, 54.888753844601304 ] } },
{ "type": "Feature", "properties": { "PLACENAME": "CULLYHANNA", "X": 292300, "Y": 321000, "OBJECTID": 118 }, "geometry": { "type": "Point", "coordinates": [ -6.588820671355624, 54.12981913262324 ] } },
{ "type": "Feature", "properties": { "PLACENAME": "CULTRA", "X": 340700, "Y": 380100, "OBJECTID": 119 }, "geometry": { "type": "Point", "coordinates": [ -5.82097750384427, 54.64940692433175 ] } },
{ "type": "Feature", "properties": { "PLACENAME": "CUSHENDALL", "X": 324100, "Y": 427600, "OBJECTID": 120 }, "geometry": { "type": "Point", "coordinates": [ -6.057575450064999, 55.080195389098535 ] } },
{ "type": "Feature", "properties": { "PLACENAME": "CUSHENDUN", "X": 324900, "Y": 432600, "OBJECTID": 121 }, "geometry": { "type": "Point", "coordinates": [ -6.042863806430675, 55.124880579959431 ] } },
{ "type": "Feature", "properties": { "PLACENAME": "DARKLEY", "X": 286100, "Y": 331300, "OBJECTID": 122 }, "geometry": { "type": "Point", "coordinates": [ -6.680691814269478, 54.223401668494773 ] } },
{ "type": "Feature", "properties": { "PLACENAME": "DERRYBOY", "X": 347800, "Y": 356400, "OBJECTID": 123 }, "geometry": { "type": "Point", "coordinates": [ -5.722959982005522, 54.43464633065512 ] } },
{ "type": "Feature", "properties": { "PLACENAME": "DERRYGONNELLY", "X": 212000, "Y": 352100, "OBJECTID": 124 }, "geometry": { "type": "Point", "coordinates": [ -7.815904700392392, 54.417343468121381 ] } },
{ "type": "Feature", "properties": { "PLACENAME": "DERVOCK", "X": 297700, "Y": 431700, "OBJECTID": 125 }, "geometry": { "type": "Point", "coordinates": [ -6.469357352128132, 55.122901235584699 ] } },
{ "type": "Feature", "properties": { "PLACENAME": "DESERTMARTIN", "X": 285400, "Y": 392100, "OBJECTID": 126 }, "geometry": { "type": "Point", "coordinates": [ -6.673853780321156, 54.769556329533671 ] } },
{ "type": "Feature", "properties": { "PLACENAME": "DOAGH", "X": 326200, "Y": 389500, "OBJECTID": 127 }, "geometry": { "type": "Point", "coordinates": [ -6.041400111879121, 54.737629698494459 ] } },
{ "type": "Feature", "properties": { "PLACENAME": "DOLLINGSTOWN", "X": 310700, "Y": 358400, "OBJECTID": 128 }, "geometry": { "type": "Point", "coordinates": [ -6.293643404729349, 54.462027976597213 ] } },
{ "type": "Feature", "properties": { "PLACENAME": "DONAGH", "X": 239700, "Y": 330000, "OBJECTID": 129 }, "geometry": { "type": "Point", "coordinates": [ -7.392180631085577, 54.217413681784237 ] } },
{ "type": "Feature", "properties": { "PLACENAME": "DONAGHADEE", "X": 359100, "Y": 379900, "OBJECTID": 130 }, "geometry": { "type": "Point", "coordinates": [ -5.536303043856485, 54.642150626826762 ] } },
{ "type": "Feature", "properties": { "PLACENAME": "DONAGHCLONEY", "X": 313100, "Y": 353600, "OBJECTID": 131 }, "geometry": { "type": "Point", "coordinates": [ -6.258482117503117, 54.418399702936767 ] } },
{ "type": "Feature", "properties": { "PLACENAME": "DONAGHMORE", "X": 277000, "Y": 365400, "OBJECTID": 132 }, "geometry": { "type": "Point", "coordinates": [ -6.811356236568545, 54.531118163203644 ] } },
{ "type": "Feature", "properties": { "PLACENAME": "DOWNHILL", "X": 275200, "Y": 436000, "OBJECTID": 133 }, "geometry": { "type": "Point", "coordinates": [ -6.820798595872837, 55.165436908786049 ] } },
{ "type": "Feature", "properties": { "PLACENAME": "DOWNPATRICK", "X": 348700, "Y": 344600, "OBJECTID": 134 }, "geometry": { "type": "Point", "coordinates": [ -5.714996557845708, 54.328464290074507 ] } },
{ "type": "Feature", "properties": { "PLACENAME": "DRAPERSTOWN", "X": 278300, "Y": 394600, "OBJECTID": 135 }, "geometry": { "type": "Point", "coordinates": [ -6.783466659760043, 54.793164266441813 ] } },
{ "type": "Feature", "properties": { "PLACENAME": "DROMARA", "X": 328800, "Y": 349700, "OBJECTID": 136 }, "geometry": { "type": "Point", "coordinates": [ -6.018469230584691, 54.379656953398317 ] } },
{ "type": "Feature", "properties": { "PLACENAME": "DROMORE", "X": 320200, "Y": 353400, "OBJECTID": 137 }, "geometry": { "type": "Point", "coordinates": [ -6.149251510284096, 54.414977730879585 ] } },
{ "type": "Feature", "properties": { "PLACENAME": "DROMORE", "X": 235100, "Y": 362900, "OBJECTID": 138 }, "geometry": { "type": "Point", "coordinates": [ -7.458816465121962, 54.513291468236076 ] } },
{ "type": "Feature", "properties": { "PLACENAME": "DRUMAHOE", "X": 246600, "Y": 414700, "OBJECTID": 139 }, "geometry": { "type": "Point", "coordinates": [ -7.272983657021675, 54.977642602866176 ] } },
{ "type": "Feature", "properties": { "PLACENAME": "DRUMANESS", "X": 339500, "Y": 348700, "OBJECTID": 140 }, "geometry": { "type": "Point", "coordinates": [ -5.854383943207641, 54.367865422663286 ] } },
{ "type": "Feature", "properties": { "PLACENAME": "DRUMBEG", "X": 330500, "Y": 366800, "OBJECTID": 141 }, "geometry": { "type": "Point", "coordinates": [ -5.984792391042512, 54.532744803546898 ] } },
{ "type": "Feature", "properties": { "PLACENAME": "DRUMBO", "X": 332200, "Y": 365000, "OBJECTID": 142 }, "geometry": { "type": "Point", "coordinates": [ -5.959355698589005, 54.516144982284494 ] } },
{ "type": "Feature", "properties": { "PLACENAME": "DRUMQUIN", "X": 233200, "Y": 374200, "OBJECTID": 143 }, "geometry": { "type": "Point", "coordinates": [ -7.486876457699799, 54.614924884811593 ] } },
{ "type": "Feature", "properties": { "PLACENAME": "DRUMSURN", "X": 271900, "Y": 417200, "OBJECTID": 144 }, "geometry": { "type": "Point", "coordinates": [ -6.87730786247772, 54.997090483007689 ] } },
{ "type": "Feature", "properties": { "PLACENAME": "DUNBARTON", "X": 306300, "Y": 349000, "OBJECTID": 145 }, "geometry": { "type": "Point", "coordinates": [ -6.364829214300119, 54.378557710443467 ] } },
{ "type": "Feature", "properties": { "PLACENAME": "DUNDONALD", "X": 341900, "Y": 374000, "OBJECTID": 146 }, "geometry": { "type": "Point", "coordinates": [ -5.805352775976509, 54.594314696514409 ] } },
{ "type": "Feature", "properties": { "PLACENAME": "DUNDROD", "X": 321500, "Y": 375700, "OBJECTID": 147 }, "geometry": { "type": "Point", "coordinates": [ -6.120062004328253, 54.614887940065223 ] } },
{ "type": "Feature", "properties": { "PLACENAME": "DUNDRUM", "X": 340500, "Y": 336300, "OBJECTID": 148 }, "geometry": { "type": "Point", "coordinates": [ -5.84483780404526, 54.25627428370553 ] } },
{ "type": "Feature", "properties": { "PLACENAME": "DUNGANNON", "X": 279700, "Y": 362500, "OBJECTID": 149 }, "geometry": { "type": "Point", "coordinates": [ -6.770443729682938, 54.504655722566753 ] } },
{ "type": "Feature", "properties": { "PLACENAME": "DUNGIVEN", "X": 268900, "Y": 409500, "OBJECTID": 150 }, "geometry": { "type": "Point", "coordinates": [ -6.926020750677262, 54.928360540252314 ] } },
{ "type": "Feature", "properties": { "PLACENAME": "DUNLOY", "X": 301600, "Y": 419300, "OBJECTID": 151 }, "geometry": { "type": "Point", "coordinates": [ -6.41266739406133, 55.010779097861921 ] } },
{ "type": "Feature", "properties": { "PLACENAME": "DUNMURRY", "X": 329200, "Y": 368900, "OBJECTID": 152 }, "geometry": { "type": "Point", "coordinates": [ -6.003940624371916, 54.551930909069114 ] } },
{ "type": "Feature", "properties": { "PLACENAME": "DUNNAMANAGH", "X": 244300, "Y": 403100, "OBJECTID": 153 }, "geometry": { "type": "Point", "coordinates": [ -7.310685193409322, 54.873661279034415 ] } },
{ "type": "Feature", "properties": { "PLACENAME": "DUNNAMORE", "X": 268500, "Y": 381000, "OBJECTID": 154 }, "geometry": { "type": "Point", "coordinates": [ -6.938987795712078, 54.672449789484212 ] } },
{ "type": "Feature", "properties": { "PLACENAME": "DUNSEVERICK", "X": 298700, "Y": 444600, "OBJECTID": 155 }, "geometry": { "type": "Point", "coordinates": [ -6.449195898397364, 55.238531885188571 ] } },
{ "type": "Feature", "properties": { "PLACENAME": "EDEN", "X": 343500, "Y": 389000, "OBJECTID": 156 }, "geometry": { "type": "Point", "coordinates": [ -5.773262911477858, 54.728507160188002 ] } },
{ "type": "Feature", "properties": { "PLACENAME": "EDERNEY", "X": 222200, "Y": 365000, "OBJECTID": 157 }, "geometry": { "type": "Point", "coordinates": [ -7.657824707245775, 54.532883758576524 ] } },
{ "type": "Feature", "properties": { "PLACENAME": "EGLINTON", "X": 252500, "Y": 420200, "OBJECTID": 158 }, "geometry": { "type": "Point", "coordinates": [ -7.179843658909344, 55.026455462675258 ] } },
{ "type": "Feature", "properties": { "PLACENAME": "EGLISH", "X": 278300, "Y": 356500, "OBJECTID": 159 }, "geometry": { "type": "Point", "coordinates": [ -6.793637235496481, 54.45098583340549 ] } },
{ "type": "Feature", "properties": { "PLACENAME": "ENNISKILLEN", "X": 224000, "Y": 344000, "OBJECTID": 160 }, "geometry": { "type": "Point", "coordinates": [ -7.631718659856435, 54.344155492628936 ] } },
{ "type": "Feature", "properties": { "PLACENAME": "FEENY", "X": 262800, "Y": 405400, "OBJECTID": 161 }, "geometry": { "type": "Point", "coordinates": [ -7.022048326795558, 54.892340709735592 ] } },
{ "type": "Feature", "properties": { "PLACENAME": "FINNIS", "X": 328500, "Y": 347700, "OBJECTID": 162 }, "geometry": { "type": "Point", "coordinates": [ -6.023946085652802, 54.361776436567759 ] } },
{ "type": "Feature", "properties": { "PLACENAME": "FINTONA", "X": 244200, "Y": 361200, "OBJECTID": 163 }, "geometry": { "type": "Point", "coordinates": [ -7.318580036717066, 54.497310291374951 ] } },
{ "type": "Feature", "properties": { "PLACENAME": "FIVEMILETOWN", "X": 244500, "Y": 347800, "OBJECTID": 164 }, "geometry": { "type": "Point", "coordinates": [ -7.315959872063458, 54.376915852908731 ] } },
{ "type": "Feature", "properties": { "PLACENAME": "FLURRYBRIDGE", "X": 307000, "Y": 317700, "OBJECTID": 165 }, "geometry": { "type": "Point", "coordinates": [ -6.365214405797921, 54.097338556404956 ] } },
{ "type": "Feature", "properties": { "PLACENAME": "FORKHILL", "X": 301500, "Y": 315800, "OBJECTID": 166 }, "geometry": { "type": "Point", "coordinates": [ -6.449885173588673, 54.081388213775952 ] } },
{ "type": "Feature", "properties": { "PLACENAME": "GALGORM", "X": 307900, "Y": 402800, "OBJECTID": 167 }, "geometry": { "type": "Point", "coordinates": [ -6.320427938277815, 54.861305754101785 ] } },
{ "type": "Feature", "properties": { "PLACENAME": "GARRISON", "X": 194200, "Y": 351900, "OBJECTID": 168 }, "geometry": { "type": "Point", "coordinates": [ -8.090082989579122, 54.41565433195499 ] } },
{ "type": "Feature", "properties": { "PLACENAME": "GARRYDUFF", "X": 298600, "Y": 422400, "OBJECTID": 169 }, "geometry": { "type": "Point", "coordinates": [ -6.458472133683403, 55.039217341542603 ] } },
{ "type": "Feature", "properties": { "PLACENAME": "GARVAGH", "X": 284100, "Y": 415900, "OBJECTID": 170 }, "geometry": { "type": "Point", "coordinates": [ -6.687114803029583, 54.983507652223082 ] } },
{ "type": "Feature", "properties": { "PLACENAME": "GARVAGHY", "X": 256000, "Y": 360300, "OBJECTID": 171 }, "geometry": { "type": "Point", "coordinates": [ -7.136653974884631, 54.488062307170736 ] } },
{ "type": "Feature", "properties": { "PLACENAME": "GILFORD", "X": 306700, "Y": 348500, "OBJECTID": 172 }, "geometry": { "type": "Point", "coordinates": [ -6.358855325263578, 54.373984308553887 ] } },
{ "type": "Feature", "properties": { "PLACENAME": "GLENARIFF", "X": 324000, "Y": 425500, "OBJECTID": 173 }, "geometry": { "type": "Point", "coordinates": [ -6.060052985966277, 55.061368128025784 ] } },
{ "type": "Feature", "properties": { "PLACENAME": "GLENARM", "X": 331100, "Y": 415200, "OBJECTID": 174 }, "geometry": { "type": "Point", "coordinates": [ -5.953725708705463, 54.967086927279723 ] } },
{ "type": "Feature", "properties": { "PLACENAME": "GLENAVY", "X": 315500, "Y": 373000, "OBJECTID": 175 }, "geometry": { "type": "Point", "coordinates": [ -6.213945949985654, 54.592051637511354 ] } },
{ "type": "Feature", "properties": { "PLACENAME": "GLENOE", "X": 339600, "Y": 396700, "OBJECTID": 176 }, "geometry": { "type": "Point", "coordinates": [ -5.830055232171272, 54.798722031578336 ] } },
{ "type": "Feature", "properties": { "PLACENAME": "GLYNN", "X": 340700, "Y": 400000, "OBJECTID": 177 }, "geometry": { "type": "Point", "coordinates": [ -5.811363020841913, 54.828036624638649 ] } },
{ "type": "Feature", "properties": { "PLACENAME": "GORTIN", "X": 248200, "Y": 385800, "OBJECTID": 178 }, "geometry": { "type": "Point", "coordinates": [ -7.252812907590335, 54.717911827459915 ] } },
{ "type": "Feature", "properties": { "PLACENAME": "GORTNAHEY", "X": 266100, "Y": 412500, "OBJECTID": 179 }, "geometry": { "type": "Point", "coordinates": [ -6.968998780904061, 54.95568207660348 ] } },
{ "type": "Feature", "properties": { "PLACENAME": "GRACEHILL", "X": 307400, "Y": 402000, "OBJECTID": 180 }, "geometry": { "type": "Point", "coordinates": [ -6.328507932867024, 54.854230065201008 ] } },
{ "type": "Feature", "properties": { "PLACENAME": "GREENCASTLE", "X": 324200, "Y": 311800, "OBJECTID": 181 }, "geometry": { "type": "Point", "coordinates": [ -6.104870175672557, 54.040504191744574 ] } },
{ "type": "Feature", "properties": { "PLACENAME": "GREENCASTLE", "X": 259500, "Y": 382800, "OBJECTID": 182 }, "geometry": { "type": "Point", "coordinates": [ -7.078101239389521, 54.68975861177676 ] } },
{ "type": "Feature", "properties": { "PLACENAME": "GREENISLAND", "X": 337300, "Y": 385300, "OBJECTID": 183 }, "geometry": { "type": "Point", "coordinates": [ -5.871168823705116, 54.697022165234408 ] } },
{ "type": "Feature", "properties": { "PLACENAME": "GREYABBEY", "X": 357900, "Y": 367900, "OBJECTID": 184 }, "geometry": { "type": "Point", "coordinates": [ -5.561318555490722, 54.534827698103399 ] } },
{ "type": "Feature", "properties": { "PLACENAME": "GREYSTEEL", "X": 256400, "Y": 420800, "OBJECTID": 185 }, "geometry": { "type": "Point", "coordinates": [ -7.11875136323959, 55.031417957768788 ] } },
{ "type": "Feature", "properties": { "PLACENAME": "GROOMSPORT", "X": 353700, "Y": 383400, "OBJECTID": 186 }, "geometry": { "type": "Point", "coordinates": [ -5.618028811474709, 54.675236056660971 ] } },
{ "type": "Feature", "properties": { "PLACENAME": "GULLADUFF", "X": 289000, "Y": 399400, "OBJECTID": 187 }, "geometry": { "type": "Point", "coordinates": [ -6.615697175310568, 54.834487270691469 ] } },
{ "type": "Feature", "properties": { "PLACENAME": "HAMILTONSBAWN", "X": 294800, "Y": 344700, "OBJECTID": 188 }, "geometry": { "type": "Point", "coordinates": [ -6.543110258400915, 54.342208670979936 ] } },
{ "type": "Feature", "properties": { "PLACENAME": "HELEN'S BAY", "X": 345600, "Y": 382800, "OBJECTID": 189 }, "geometry": { "type": "Point", "coordinates": [ -5.74378590265683, 54.672253246498848 ] } },
{ "type": "Feature", "properties": { "PLACENAME": "HILLSBOROUGH", "X": 324200, "Y": 358600, "OBJECTID": 190 }, "geometry": { "type": "Point", "coordinates": [ -6.085498060098428, 54.460705395510459 ] } },
{ "type": "Feature", "properties": { "PLACENAME": "HILLTOWN", "X": 321100, "Y": 328900, "OBJECTID": 191 }, "geometry": { "type": "Point", "coordinates": [ -6.145317227698167, 54.194783703982814 ] } },
{ "type": "Feature", "properties": { "PLACENAME": "HOLYWOOD", "X": 339800, "Y": 379200, "OBJECTID": 192 }, "geometry": { "type": "Point", "coordinates": [ -5.83533908257154, 54.641577931551382 ] } },
{ "type": "Feature", "properties": { "PLACENAME": "IRVINESTOWN", "X": 223800, "Y": 358300, "OBJECTID": 193 }, "geometry": { "type": "Point", "coordinates": [ -7.633649392244663, 54.472624710277685 ] } },
{ "type": "Feature", "properties": { "PLACENAME": "JERRETTSPASS", "X": 306300, "Y": 333300, "OBJECTID": 194 }, "geometry": { "type": "Point", "coordinates": [ -6.370410705619321, 54.237573415416989 ] } },
{ "type": "Feature", "properties": { "PLACENAME": "JONESBOROUGH", "X": 306600, "Y": 316800, "OBJECTID": 195 }, "geometry": { "type": "Point", "coordinates": [ -6.371642493143202, 54.089339254285328 ] } },
{ "type": "Feature", "properties": { "PLACENAME": "KATESBRIDGE", "X": 320900, "Y": 340800, "OBJECTID": 196 }, "geometry": { "type": "Point", "coordinates": [ -6.143585656738588, 54.301680018160425 ] } },
{ "type": "Feature", "properties": { "PLACENAME": "KEADY", "X": 284400, "Y": 334100, "OBJECTID": 197 }, "geometry": { "type": "Point", "coordinates": [ -6.705961285708018, 54.248832010827911 ] } },
{ "type": "Feature", "properties": { "PLACENAME": "\"KELLS CONNOR\"", "X": 314500, "Y": 397000, "OBJECTID": 198 }, "geometry": { "type": "Point", "coordinates": [ -6.219993985074187, 54.807766230641427 ] } },
{ "type": "Feature", "properties": { "PLACENAME": "KESH", "X": 218000, "Y": 363900, "OBJECTID": 199 }, "geometry": { "type": "Point", "coordinates": [ -7.722768107326875, 54.523168658899777 ] } },
{ "type": "Feature", "properties": { "PLACENAME": "KILCOO", "X": 328500, "Y": 333200, "OBJECTID": 200 }, "geometry": { "type": "Point", "coordinates": [ -6.030173177165248, 54.231592142478057 ] } },
{ "type": "Feature", "properties": { "PLACENAME": "KILKEEL", "X": 330500, "Y": 314500, "OBJECTID": 201 }, "geometry": { "type": "Point", "coordinates": [ -6.007605183545306, 54.063192391904394 ] } },
{ "type": "Feature", "properties": { "PLACENAME": "KILLADEAS", "X": 220600, "Y": 354000, "OBJECTID": 202 }, "geometry": { "type": "Point", "coordinates": [ -7.683304783562572, 54.4341366760261 ] } },
{ "type": "Feature", "properties": { "PLACENAME": "KILLEAD", "X": 315200, "Y": 379200, "OBJECTID": 203 }, "geometry": { "type": "Point", "coordinates": [ -6.216149754820352, 54.64778810212524 ] } },
{ "type": "Feature", "properties": { "PLACENAME": "KILLEN", "X": 224100, "Y": 380500, "OBJECTID": 204 }, "geometry": { "type": "Point", "coordinates": [ -7.627204979678901, 54.672032206117656 ] } },
{ "type": "Feature", "properties": { "PLACENAME": "KILLINCHY", "X": 349700, "Y": 360800, "OBJECTID": 205 }, "geometry": { "type": "Point", "coordinates": [ -5.691482149936052, 54.473585597273967 ] } },
{ "type": "Feature", "properties": { "PLACENAME": "KILLOUGH", "X": 353700, "Y": 336300, "OBJECTID": 206 }, "geometry": { "type": "Point", "coordinates": [ -5.642471511917281, 54.252484442272447 ] } },
{ "type": "Feature", "properties": { "PLACENAME": "KILLYBEGS", "X": 308800, "Y": 399600, "OBJECTID": 207 }, "geometry": { "type": "Point", "coordinates": [ -6.307622582307861, 54.832378935577651 ] } },
{ "type": "Feature", "properties": { "PLACENAME": "KILLYLEA", "X": 279700, "Y": 344900, "OBJECTID": 208 }, "geometry": { "type": "Point", "coordinates": [ -6.775168627102087, 54.346584805604415 ] } },
{ "type": "Feature", "properties": { "PLACENAME": "KILLYLEAGH", "X": 352500, "Y": 352500, "OBJECTID": 209 }, "geometry": { "type": "Point", "coordinates": [ -5.652595582462403, 54.398254127412947 ] } },
{ "type": "Feature", "properties": { "PLACENAME": "KILRAGHTS", "X": 301900, "Y": 426100, "OBJECTID": 210 }, "geometry": { "type": "Point", "coordinates": [ -6.405555894532132, 55.071774841864119 ] } },
{ "type": "Feature", "properties": { "PLACENAME": "KILREA", "X": 292600, "Y": 412500, "OBJECTID": 211 }, "geometry": { "type": "Point", "coordinates": [ -6.555486689237721, 54.951471161744294 ] } },
{ "type": "Feature", "properties": { "PLACENAME": "KINAWLEY", "X": 223000, "Y": 330900, "OBJECTID": 212 }, "geometry": { "type": "Point", "coordinates": [ -7.648099993734691, 54.226518877393126 ] } },
{ "type": "Feature", "properties": { "PLACENAME": "KINGSMILLS", "X": 300600, "Y": 330900, "OBJECTID": 213 }, "geometry": { "type": "Point", "coordinates": [ -6.458599696266238, 54.217170688902691 ] } },
{ "type": "Feature", "properties": { "PLACENAME": "KIRCUBBIN", "X": 359800, "Y": 362700, "OBJECTID": 214 }, "geometry": { "type": "Point", "coordinates": [ -5.534808725830639, 54.487563035063609 ] } },
{ "type": "Feature", "properties": { "PLACENAME": "KIRKISTOWN", "X": 363200, "Y": 358600, "OBJECTID": 215 }, "geometry": { "type": "Point", "coordinates": [ -5.484657220858895, 54.44968617010764 ] } },
{ "type": "Feature", "properties": { "PLACENAME": "KNOCKCLOGHRIM", "X": 289400, "Y": 396900, "OBJECTID": 216 }, "geometry": { "type": "Point", "coordinates": [ -6.610245713786653, 54.811965819357702 ] } },
{ "type": "Feature", "properties": { "PLACENAME": "LACK", "X": 227400, "Y": 366500, "OBJECTID": 217 }, "geometry": { "type": "Point", "coordinates": [ -7.577363297706748, 54.54610406193185 ] } },
{ "type": "Feature", "properties": { "PLACENAME": "LAMBEG", "X": 327500, "Y": 366000, "OBJECTID": 218 }, "geometry": { "type": "Point", "coordinates": [ -6.031451254847673, 54.52632559702802 ] } },
{ "type": "Feature", "properties": { "PLACENAME": "LARNE", "X": 340400, "Y": 403200, "OBJECTID": 219 }, "geometry": { "type": "Point", "coordinates": [ -5.814474801434983, 54.856844536549936 ] } },
{ "type": "Feature", "properties": { "PLACENAME": "LAURELVALE", "X": 300600, "Y": 347800, "OBJECTID": 220 }, "geometry": { "type": "Point", "coordinates": [ -6.452918978953107, 54.368937713234594 ] } },
{ "type": "Feature", "properties": { "PLACENAME": "LAWRENCETOWN", "X": 310000, "Y": 349200, "OBJECTID": 221 }, "geometry": { "type": "Point", "coordinates": [ -6.307840764706242, 54.379569027130685 ] } },
{ "type": "Feature", "properties": { "PLACENAME": "LIMAVADY", "X": 267500, "Y": 422600, "OBJECTID": 222 }, "geometry": { "type": "Point", "coordinates": [ -6.944771229430817, 55.046202744962535 ] } },
{ "type": "Feature", "properties": { "PLACENAME": "LISBELLAW", "X": 230200, "Y": 341000, "OBJECTID": 223 }, "geometry": { "type": "Point", "coordinates": [ -7.536693005895472, 54.316877017871754 ] } },
{ "type": "Feature", "properties": { "PLACENAME": "LISBURN", "X": 326700, "Y": 364400, "OBJECTID": 224 }, "geometry": { "type": "Point", "coordinates": [ -6.04448639565047, 54.512161270215898 ] } },
{ "type": "Feature", "properties": { "PLACENAME": "LISNASKEA", "X": 236500, "Y": 333700, "OBJECTID": 225 }, "geometry": { "type": "Point", "coordinates": [ -7.440781486964894, 54.250889178565771 ] } },
{ "type": "Feature", "properties": { "PLACENAME": "LONDONDERRY", "X": 243400, "Y": 416600, "OBJECTID": 226 }, "geometry": { "type": "Point", "coordinates": [ -7.322667662552794, 54.994996781066128 ] } },
{ "type": "Feature", "properties": { "PLACENAME": "LOUGHGALL", "X": 290800, "Y": 352200, "OBJECTID": 227 }, "geometry": { "type": "Point", "coordinates": [ -6.602306173918055, 54.410291279709895 ] } },
{ "type": "Feature", "properties": { "PLACENAME": "LOUGHGUILE", "X": 308300, "Y": 425200, "OBJECTID": 228 }, "geometry": { "type": "Point", "coordinates": [ -6.305755883496673, 55.062341305034337 ] } },
{ "type": "Feature", "properties": { "PLACENAME": "LOUGHINISLAND", "X": 341700, "Y": 345400, "OBJECTID": 229 }, "geometry": { "type": "Point", "coordinates": [ -5.822129506977711, 54.337635166151152 ] } },
{ "type": "Feature", "properties": { "PLACENAME": "LURGAN", "X": 308000, "Y": 358500, "OBJECTID": 230 }, "geometry": { "type": "Point", "coordinates": [ -6.335223879676654, 54.463506605121495 ] } },
{ "type": "Feature", "properties": { "PLACENAME": "MACOSQUIN", "X": 282400, "Y": 428700, "OBJECTID": 231 }, "geometry": { "type": "Point", "coordinates": [ -6.709971151641851, 55.098737614851544 ] } },
{ "type": "Feature", "properties": { "PLACENAME": "MAGHABERRY", "X": 317400, "Y": 363300, "OBJECTID": 232 }, "geometry": { "type": "Point", "coordinates": [ -6.188433771910019, 54.504521232054906 ] } },
{ "type": "Feature", "properties": { "PLACENAME": "MAGHERA", "X": 337000, "Y": 334600, "OBJECTID": 233 }, "geometry": { "type": "Point", "coordinates": [ -5.899279320246047, 54.241960325558622 ] } },
{ "type": "Feature", "properties": { "PLACENAME": "MAGHERA", "X": 285300, "Y": 400400, "OBJECTID": 234 }, "geometry": { "type": "Point", "coordinates": [ -6.67296575263273, 54.844110529166507 ] } },
{ "type": "Feature", "properties": { "PLACENAME": "MAGHERAFELT", "X": 289500, "Y": 390500, "OBJECTID": 235 }, "geometry": { "type": "Point", "coordinates": [ -6.610663129484499, 54.754474824425387 ] } },
{ "type": "Feature", "properties": { "PLACENAME": "MAGHERALIN", "X": 312800, "Y": 358900, "OBJECTID": 236 }, "geometry": { "type": "Point", "coordinates": [ -6.261085281348833, 54.466056018392685 ] } },
{ "type": "Feature", "properties": { "PLACENAME": "MAGHERAMASON", "X": 239600, "Y": 410500, "OBJECTID": 237 }, "geometry": { "type": "Point", "coordinates": [ -7.382876100365272, 54.94052258713382 ] } },
{ "type": "Feature", "properties": { "PLACENAME": "MAGHERAMORNE", "X": 343100, "Y": 398600, "OBJECTID": 238 }, "geometry": { "type": "Point", "coordinates": [ -5.774739923652751, 54.814791388437087 ] } },
{ "type": "Feature", "properties": { "PLACENAME": "MAGUIRESBRIDGE", "X": 234700, "Y": 338600, "OBJECTID": 239 }, "geometry": { "type": "Point", "coordinates": [ -7.467827563905863, 54.295031898831155 ] } },
{ "type": "Feature", "properties": { "PLACENAME": "MALLUSK", "X": 328600, "Y": 383200, "OBJECTID": 240 }, "geometry": { "type": "Point", "coordinates": [ -6.006940119168497, 54.680464019178885 ] } },
{ "type": "Feature", "properties": { "PLACENAME": "MARKETHILL", "X": 295000, "Y": 340000, "OBJECTID": 241 }, "geometry": { "type": "Point", "coordinates": [ -6.541530620973727, 54.299962662623301 ] } },
{ "type": "Feature", "properties": { "PLACENAME": "MARTINSTOWN", "X": 313700, "Y": 414400, "OBJECTID": 242 }, "geometry": { "type": "Point", "coordinates": [ -6.225573789177433, 54.964171912810734 ] } },
{ "type": "Feature", "properties": { "PLACENAME": "MAYOBRIDGE", "X": 315600, "Y": 327200, "OBJECTID": 243 }, "geometry": { "type": "Point", "coordinates": [ -6.230192100204247, 54.18078643969087 ] } },
{ "type": "Feature", "properties": { "PLACENAME": "MAZETOWN", "X": 322100, "Y": 362600, "OBJECTID": 244 }, "geometry": { "type": "Point", "coordinates": [ -6.116211384029511, 54.497127720920091 ] } },
{ "type": "Feature", "properties": { "PLACENAME": "MIDDLETOWN", "X": 275300, "Y": 338800, "OBJECTID": 245 }, "geometry": { "type": "Point", "coordinates": [ -6.844350574833054, 54.292464295447829 ] } },
{ "type": "Feature", "properties": { "PLACENAME": "MILLBROOK", "X": 337500, "Y": 401300, "OBJECTID": 246 }, "geometry": { "type": "Point", "coordinates": [ -5.860500688541533, 54.840593356903085 ] } },
{ "type": "Feature", "properties": { "PLACENAME": "MILLISLE", "X": 359700, "Y": 376100, "OBJECTID": 247 }, "geometry": { "type": "Point", "coordinates": [ -5.529087938657737, 54.607857427646344 ] } },
{ "type": "Feature", "properties": { "PLACENAME": "MILLTOWN", "X": 297600, "Y": 346400, "OBJECTID": 248 }, "geometry": { "type": "Point", "coordinates": [ -6.499517542154113, 54.356947913996834 ] } },
{ "type": "Feature", "properties": { "PLACENAME": "MILLTOWN", "X": 314700, "Y": 336500, "OBJECTID": 249 }, "geometry": { "type": "Point", "coordinates": [ -6.240420503389463, 54.264496939691568 ] } },
{ "type": "Feature", "properties": { "PLACENAME": "MILLTOWN", "X": 275800, "Y": 434500, "OBJECTID": 250 }, "geometry": { "type": "Point", "coordinates": [ -6.811787004190669, 55.151874973156879 ] } },
{ "type": "Feature", "properties": { "PLACENAME": "MILLTOWN", "X": 289000, "Y": 423700, "OBJECTID": 251 }, "geometry": { "type": "Point", "coordinates": [ -6.608176306265414, 55.052700144089606 ] } },
{ "type": "Feature", "properties": { "PLACENAME": "MILLTOWN", "X": 257700, "Y": 375500, "OBJECTID": 252 }, "geometry": { "type": "Point", "coordinates": [ -7.107448386765069, 54.62439972302505 ] } },
{ "type": "Feature", "properties": { "PLACENAME": "MINTERBURN", "X": 273400, "Y": 350300, "OBJECTID": 253 }, "geometry": { "type": "Point", "coordinates": [ -6.870693759831447, 54.396030449302849 ] } },
{ "type": "Feature", "properties": { "PLACENAME": "MOIRA", "X": 315000, "Y": 360500, "OBJECTID": 254 }, "geometry": { "type": "Point", "coordinates": [ -6.226551956319621, 54.479929505055075 ] } },
{ "type": "Feature", "properties": { "PLACENAME": "MONEYDIG", "X": 289100, "Y": 416400, "OBJECTID": 255 }, "geometry": { "type": "Point", "coordinates": [ -6.608884718636992, 54.987129528392622 ] } },
{ "type": "Feature", "properties": { "PLACENAME": "MONEYGLASS", "X": 301700, "Y": 393300, "OBJECTID": 256 }, "geometry": { "type": "Point", "coordinates": [ -6.420272294312511, 54.777298753216137 ] } },
{ "type": "Feature", "properties": { "PLACENAME": "MONEYMORE", "X": 283500, "Y": 385800, "OBJECTID": 257 }, "geometry": { "type": "Point", "coordinates": [ -6.705173028186242, 54.713297743888901 ] } },
{ "type": "Feature", "properties": { "PLACENAME": "MONEYNEANY", "X": 275300, "Y": 397100, "OBJECTID": 258 }, "geometry": { "type": "Point", "coordinates": [ -6.829445801271143, 54.816075243025303 ] } },
{ "type": "Feature", "properties": { "PLACENAME": "MONEYREAGH", "X": 340500, "Y": 367100, "OBJECTID": 259 }, "geometry": { "type": "Point", "coordinates": [ -5.83028867763676, 54.532766127667209 ] } },
{ "type": "Feature", "properties": { "PLACENAME": "MONKSTOWN", "X": 334500, "Y": 384500, "OBJECTID": 260 }, "geometry": { "type": "Point", "coordinates": [ -5.914934155005226, 54.690595433441963 ] } },
{ "type": "Feature", "properties": { "PLACENAME": "MOSS-SIDE", "X": 301300, "Y": 435300, "OBJECTID": 261 }, "geometry": { "type": "Point", "coordinates": [ -6.411669388882135, 55.154503269856008 ] } },
{ "type": "Feature", "properties": { "PLACENAME": "MOSSLEY", "X": 332200, "Y": 384900, "OBJECTID": 262 }, "geometry": { "type": "Point", "coordinates": [ -5.950395715630345, 54.694794616081651 ] } },
{ "type": "Feature", "properties": { "PLACENAME": "MOUNTFIELD", "X": 253700, "Y": 378000, "OBJECTID": 263 }, "geometry": { "type": "Point", "coordinates": [ -7.168910076143781, 54.647295735983604 ] } },
{ "type": "Feature", "properties": { "PLACENAME": "MOUNTJOY", "X": 242200, "Y": 377900, "OBJECTID": 264 }, "geometry": { "type": "Point", "coordinates": [ -7.347050338518522, 54.647489202039864 ] } },
{ "type": "Feature", "properties": { "PLACENAME": "MOY", "X": 284300, "Y": 356400, "OBJECTID": 265 }, "geometry": { "type": "Point", "coordinates": [ -6.701192272179685, 54.44912879116243 ] } },
{ "type": "Feature", "properties": { "PLACENAME": "MOYGASHEL", "X": 280800, "Y": 359900, "OBJECTID": 266 }, "geometry": { "type": "Point", "coordinates": [ -6.75417835214391, 54.481130886344268 ] } },
{ "type": "Feature", "properties": { "PLACENAME": "MUCKAMORE", "X": 316500, "Y": 385000, "OBJECTID": 267 }, "geometry": { "type": "Point", "coordinates": [ -6.193711113803317, 54.699565361298163 ] } },
{ "type": "Feature", "properties": { "PLACENAME": "MULLAN", "X": 284300, "Y": 422300, "OBJECTID": 268 }, "geometry": { "type": "Point", "coordinates": [ -6.682107576990489, 55.040946627759702 ] } },
{ "type": "Feature", "properties": { "PLACENAME": "NEW BUILDINGS", "X": 241300, "Y": 412700, "OBJECTID": 269 }, "geometry": { "type": "Point", "coordinates": [ -7.356036968164251, 54.960145415393868 ] } },
{ "type": "Feature", "properties": { "PLACENAME": "NEWCASTLE", "X": 337500, "Y": 332500, "OBJECTID": 270 }, "geometry": { "type": "Point", "coordinates": [ -5.892576707543894, 54.222973547619105 ] } },
{ "type": "Feature", "properties": { "PLACENAME": "NEWFERRY", "X": 298800, "Y": 397900, "OBJECTID": 271 }, "geometry": { "type": "Point", "coordinates": [ -6.463755369921119, 54.819183265749217 ] } },
{ "type": "Feature", "properties": { "PLACENAME": "NEWMILLS", "X": 281600, "Y": 367500, "OBJECTID": 272 }, "geometry": { "type": "Point", "coordinates": [ -6.739738954952298, 54.549259091777209 ] } },
{ "type": "Feature", "properties": { "PLACENAME": "NEWRY", "X": 308500, "Y": 326500, "OBJECTID": 273 }, "geometry": { "type": "Point", "coordinates": [ -6.339136920108947, 54.176049137989409 ] } },
{ "type": "Feature", "properties": { "PLACENAME": "NEWTOWNABBEY", "X": 334700, "Y": 382600, "OBJECTID": 274 }, "geometry": { "type": "Point", "coordinates": [ -5.912710615583102, 54.673485717674581 ] } },
{ "type": "Feature", "properties": { "PLACENAME": "NEWTOWNARDS", "X": 348900, "Y": 374100, "OBJECTID": 275 }, "geometry": { "type": "Point", "coordinates": [ -5.697096956248537, 54.593200901479065 ] } },
{ "type": "Feature", "properties": { "PLACENAME": "NEWTOWNBUTLER", "X": 241800, "Y": 326100, "OBJECTID": 276 }, "geometry": { "type": "Point", "coordinates": [ -7.360533216983969, 54.182212670948509 ] } },
{ "type": "Feature", "properties": { "PLACENAME": "NEWTOWNHAMILTON", "X": 292900, "Y": 327800, "OBJECTID": 277 }, "geometry": { "type": "Point", "coordinates": [ -6.577551761699389, 54.190781950574241 ] } },
{ "type": "Feature", "properties": { "PLACENAME": "NEWTOWNSTEWART", "X": 240100, "Y": 385600, "OBJECTID": 278 }, "geometry": { "type": "Point", "coordinates": [ -7.378521895713696, 54.716825160514063 ] } },
{ "type": "Feature", "properties": { "PLACENAME": "OMAGH", "X": 245800, "Y": 372700, "OBJECTID": 279 }, "geometry": { "type": "Point", "coordinates": [ -7.292101026285019, 54.600467238252669 ] } },
{ "type": "Feature", "properties": { "PLACENAME": "ORRITOR", "X": 277400, "Y": 379600, "OBJECTID": 280 }, "geometry": { "type": "Point", "coordinates": [ -6.801438386132063, 54.658589615268397 ] } },
{ "type": "Feature", "properties": { "PLACENAME": "PLUMBRIDGE", "X": 248300, "Y": 391300, "OBJECTID": 281 }, "geometry": { "type": "Point", "coordinates": [ -7.25034908253406, 54.767303923920828 ] } },
{ "type": "Feature", "properties": { "PLACENAME": "POMEROY", "X": 269500, "Y": 372300, "OBJECTID": 282 }, "geometry": { "type": "Point", "coordinates": [ -6.925553362955146, 54.594174250345105 ] } },
{ "type": "Feature", "properties": { "PLACENAME": "PORTADOWN", "X": 300800, "Y": 353700, "OBJECTID": 283 }, "geometry": { "type": "Point", "coordinates": [ -6.447843434442284, 54.421880915080813 ] } },
{ "type": "Feature", "properties": { "PLACENAME": "PORTAFERRY", "X": 359500, "Y": 350800, "OBJECTID": 284 }, "geometry": { "type": "Point", "coordinates": [ -5.545830104216034, 54.380853829553715 ] } },
{ "type": "Feature", "properties": { "PLACENAME": "PORTAVOGIE", "X": 366100, "Y": 359500, "OBJECTID": 285 }, "geometry": { "type": "Point", "coordinates": [ -5.439491970550062, 54.456824480584181 ] } },
{ "type": "Feature", "properties": { "PLACENAME": "PORTBALLINTRAE", "X": 292500, "Y": 441900, "OBJECTID": 286 }, "geometry": { "type": "Point", "coordinates": [ -6.547507286158988, 55.215487414977972 ] } },
{ "type": "Feature", "properties": { "PLACENAME": "PORTGLENONE", "X": 298000, "Y": 403900, "OBJECTID": 287 }, "geometry": { "type": "Point", "coordinates": [ -6.474163222003892, 54.873217450245832 ] } },
{ "type": "Feature", "properties": { "PLACENAME": "PORTRUSH", "X": 285800, "Y": 440700, "OBJECTID": 288 }, "geometry": { "type": "Point", "coordinates": [ -6.653099737055745, 55.205919586384354 ] } },
{ "type": "Feature", "properties": { "PLACENAME": "PORTSTEWART", "X": 281600, "Y": 438400, "OBJECTID": 289 }, "geometry": { "type": "Point", "coordinates": [ -6.719712892317415, 55.185976243633348 ] } },
{ "type": "Feature", "properties": { "PLACENAME": "POYNTZ PASS", "X": 306000, "Y": 339500, "OBJECTID": 290 }, "geometry": { "type": "Point", "coordinates": [ -6.372817561181175, 54.293311429861085 ] } },
{ "type": "Feature", "properties": { "PLACENAME": "RAFFREY", "X": 346500, "Y": 357100, "OBJECTID": 291 }, "geometry": { "type": "Point", "coordinates": [ -5.742631638156287, 54.441305633851051 ] } },
{ "type": "Feature", "properties": { "PLACENAME": "RANDALSTOWN", "X": 308000, "Y": 390400, "OBJECTID": 292 }, "geometry": { "type": "Point", "coordinates": [ -6.323489018646256, 54.749945379382559 ] } },
{ "type": "Feature", "properties": { "PLACENAME": "RASHARKIN", "X": 297300, "Y": 413200, "OBJECTID": 293 }, "geometry": { "type": "Point", "coordinates": [ -6.481921904673431, 54.956863145858641 ] } },
{ "type": "Feature", "properties": { "PLACENAME": "RATHFRILAND", "X": 319900, "Y": 333600, "OBJECTID": 294 }, "geometry": { "type": "Point", "coordinates": [ -6.161818337055198, 54.237266888957976 ] } },
{ "type": "Feature", "properties": { "PLACENAME": "RICHHILL", "X": 294500, "Y": 348100, "OBJECTID": 295 }, "geometry": { "type": "Point", "coordinates": [ -6.546643595942944, 54.372798229577526 ] } },
{ "type": "Feature", "properties": { "PLACENAME": "ROSSLEA", "X": 253800, "Y": 332600, "OBJECTID": 296 }, "geometry": { "type": "Point", "coordinates": [ -7.175596775200131, 54.239484223036676 ] } },
{ "type": "Feature", "properties": { "PLACENAME": "ROSTREVOR", "X": 317800, "Y": 318300, "OBJECTID": 297 }, "geometry": { "type": "Point", "coordinates": [ -6.199985439339859, 54.100370492633559 ] } },
{ "type": "Feature", "properties": { "PLACENAME": "SAINTFIELD", "X": 340600, "Y": 359100, "OBJECTID": 298 }, "geometry": { "type": "Point", "coordinates": [ -5.832550476194743, 54.460923902900269 ] } },
{ "type": "Feature", "properties": { "PLACENAME": "SANDHOLES", "X": 278900, "Y": 372500, "OBJECTID": 299 }, "geometry": { "type": "Point", "coordinates": [ -6.780112054949532, 54.59459213921923 ] } },
{ "type": "Feature", "properties": { "PLACENAME": "SAUL", "X": 350900, "Y": 346400, "OBJECTID": 300 }, "geometry": { "type": "Point", "coordinates": [ -5.680299674097944, 54.343976359154773 ] } },
{ "type": "Feature", "properties": { "PLACENAME": "SCARVA", "X": 306500, "Y": 343700, "OBJECTID": 301 }, "geometry": { "type": "Point", "coordinates": [ -6.363645802397424, 54.330923048811094 ] } },
{ "type": "Feature", "properties": { "PLACENAME": "SCOTCH STREET", "X": 296700, "Y": 355700, "OBJECTID": 302 }, "geometry": { "type": "Point", "coordinates": [ -6.510331304645199, 54.440636671434127 ] } },
{ "type": "Feature", "properties": { "PLACENAME": "SEAFORDE", "X": 340500, "Y": 341800, "OBJECTID": 303 }, "geometry": { "type": "Point", "coordinates": [ -5.842257737592083, 54.305648955828275 ] } },
{ "type": "Feature", "properties": { "PLACENAME": "SESKINORE", "X": 248400, "Y": 363500, "OBJECTID": 304 }, "geometry": { "type": "Point", "coordinates": [ -7.253387772363002, 54.517587133528487 ] } },
{ "type": "Feature", "properties": { "PLACENAME": "SHRIGLEY", "X": 351800, "Y": 353600, "OBJECTID": 305 }, "geometry": { "type": "Point", "coordinates": [ -5.662802334460962, 54.408336612582495 ] } },
{ "type": "Feature", "properties": { "PLACENAME": "SION MILLS", "X": 234000, "Y": 393100, "OBJECTID": 306 }, "geometry": { "type": "Point", "coordinates": [ -7.472294144730343, 54.784642416854865 ] } },
{ "type": "Feature", "properties": { "PLACENAME": "SIX ROAD END", "X": 352900, "Y": 378300, "OBJECTID": 307 }, "geometry": { "type": "Point", "coordinates": [ -5.633082375453957, 54.629704884002393 ] } },
{ "type": "Feature", "properties": { "PLACENAME": "SIXMILECROSS", "X": 257000, "Y": 367900, "OBJECTID": 308 }, "geometry": { "type": "Point", "coordinates": [ -7.119758054414624, 54.556215518532163 ] } },
{ "type": "Feature", "properties": { "PLACENAME": "STEWARTSTOWN", "X": 285500, "Y": 370600, "OBJECTID": 309 }, "geometry": { "type": "Point", "coordinates": [ -6.678587199530374, 54.576456596975639 ] } },
{ "type": "Feature", "properties": { "PLACENAME": "STRABANE", "X": 234500, "Y": 397700, "OBJECTID": 310 }, "geometry": { "type": "Point", "coordinates": [ -7.463976135278178, 54.825927410191682 ] } },
{ "type": "Feature", "properties": { "PLACENAME": "STRANGFORD", "X": 358900, "Y": 349600, "OBJECTID": 311 }, "geometry": { "type": "Point", "coordinates": [ -5.555695885047629, 54.370270820564052 ] } },
{ "type": "Feature", "properties": { "PLACENAME": "STRANOCUM", "X": 300800, "Y": 430100, "OBJECTID": 312 }, "geometry": { "type": "Point", "coordinates": [ -6.421353633670878, 55.107914942659463 ] } },
{ "type": "Feature", "properties": { "PLACENAME": "SWATRAGH", "X": 285500, "Y": 407500, "OBJECTID": 313 }, "geometry": { "type": "Point", "coordinates": [ -6.667751278754306, 54.907836350631229 ] } },
{ "type": "Feature", "properties": { "PLACENAME": "TAMLAGHT", "X": 291100, "Y": 406200, "OBJECTID": 314 }, "geometry": { "type": "Point", "coordinates": [ -6.580883380136122, 54.89517393065249 ] } },
{ "type": "Feature", "properties": { "PLACENAME": "TANDRAGEE", "X": 303200, "Y": 346400, "OBJECTID": 315 }, "geometry": { "type": "Point", "coordinates": [ -6.413417077085223, 54.355846410317945 ] } },
{ "type": "Feature", "properties": { "PLACENAME": "TEDD", "X": 226300, "Y": 361700, "OBJECTID": 316 }, "geometry": { "type": "Point", "coordinates": [ -7.594787561379811, 54.503043935559731 ] } },
{ "type": "Feature", "properties": { "PLACENAME": "TEMPLEPATRICK", "X": 322700, "Y": 385300, "OBJECTID": 317 }, "geometry": { "type": "Point", "coordinates": [ -6.097473904769778, 54.70078764234384 ] } },
{ "type": "Feature", "properties": { "PLACENAME": "TEMPO", "X": 235100, "Y": 347800, "OBJECTID": 318 }, "geometry": { "type": "Point", "coordinates": [ -7.460603293962326, 54.377649147243638 ] } },
{ "type": "Feature", "properties": { "PLACENAME": "THE DIAMOND", "X": 311100, "Y": 378300, "OBJECTID": 319 }, "geometry": { "type": "Point", "coordinates": [ -6.279973099383104, 54.640625677594748 ] } },
{ "type": "Feature", "properties": { "PLACENAME": "THE DIAMOND", "X": 293200, "Y": 375700, "OBJECTID": 320 }, "geometry": { "type": "Point", "coordinates": [ -6.557937367595961, 54.620897188162402 ] } },
{ "type": "Feature", "properties": { "PLACENAME": "THE DRONES", "X": 305300, "Y": 428900, "OBJECTID": 321 }, "geometry": { "type": "Point", "coordinates": [ -6.351320382518391, 55.096206620601535 ] } },
{ "type": "Feature", "properties": { "PLACENAME": "THE DRY ARCH", "X": 303500, "Y": 436100, "OBJECTID": 322 }, "geometry": { "type": "Point", "coordinates": [ -6.376881687595672, 55.161231694551397 ] } },
{ "type": "Feature", "properties": { "PLACENAME": "THE ROCK", "X": 275400, "Y": 372100, "OBJECTID": 323 }, "geometry": { "type": "Point", "coordinates": [ -6.834349311492335, 54.59153328012885 ] } },
{ "type": "Feature", "properties": { "PLACENAME": "THE SPA", "X": 336500, "Y": 349500, "OBJECTID": 324 }, "geometry": { "type": "Point", "coordinates": [ -5.900140925363253, 54.375858777018237 ] } },
{ "type": "Feature", "properties": { "PLACENAME": "THE TEMPLE", "X": 335600, "Y": 360600, "OBJECTID": 325 }, "geometry": { "type": "Point", "coordinates": [ -5.908910696420812, 54.47574787243672 ] } },
{ "type": "Feature", "properties": { "PLACENAME": "TOBERMORE", "X": 283100, "Y": 396800, "OBJECTID": 326 }, "geometry": { "type": "Point", "coordinates": [ -6.708234178345925, 54.812150279012393 ] } },
{ "type": "Feature", "properties": { "PLACENAME": "TOOME", "X": 299100, "Y": 390500, "OBJECTID": 327 }, "geometry": { "type": "Point", "coordinates": [ -6.461615760728301, 54.752675216025892 ] } },
{ "type": "Feature", "properties": { "PLACENAME": "TRILLICK", "X": 233300, "Y": 356000, "OBJECTID": 328 }, "geometry": { "type": "Point", "coordinates": [ -7.487382871708371, 54.451430577937032 ] } },
{ "type": "Feature", "properties": { "PLACENAME": "TYNAN", "X": 276700, "Y": 343000, "OBJECTID": 329 }, "geometry": { "type": "Point", "coordinates": [ -6.821778004487267, 54.32997921402302 ] } },
{ "type": "Feature", "properties": { "PLACENAME": "UPPERLANDS", "X": 287200, "Y": 404400, "OBJECTID": 330 }, "geometry": { "type": "Point", "coordinates": [ -6.642192545207179, 54.879704444702163 ] } },
{ "type": "Feature", "properties": { "PLACENAME": "VICTORIA BRIDGE", "X": 235100, "Y": 390500, "OBJECTID": 331 }, "geometry": { "type": "Point", "coordinates": [ -7.455511807882442, 54.761212465753673 ] } },
{ "type": "Feature", "properties": { "PLACENAME": "WARINGSFORD", "X": 324000, "Y": 348900, "OBJECTID": 332 }, "geometry": { "type": "Point", "coordinates": [ -6.092629825163028, 54.373663877163501 ] } },
{ "type": "Feature", "properties": { "PLACENAME": "WARINGSTOWN", "X": 310400, "Y": 355300, "OBJECTID": 333 }, "geometry": { "type": "Point", "coordinates": [ -6.299421859536565, 54.434257163658259 ] } },
{ "type": "Feature", "properties": { "PLACENAME": "WARRENPOINT", "X": 314300, "Y": 318300, "OBJECTID": 334 }, "geometry": { "type": "Point", "coordinates": [ -6.253460556382727, 54.101158842581171 ] } },
{ "type": "Feature", "properties": { "PLACENAME": "WHITEABBEY", "X": 336000, "Y": 383000, "OBJECTID": 335 }, "geometry": { "type": "Point", "coordinates": [ -5.892387804894317, 54.676727731103114 ] } },
{ "type": "Feature", "properties": { "PLACENAME": "WHITEHEAD", "X": 347500, "Y": 392000, "OBJECTID": 336 }, "geometry": { "type": "Point", "coordinates": [ -5.709707379338219, 54.754278451728702 ] } }
]
}
